0 FENGYUN 1C DEB
1 33708U 99025DGV 13282.28643323  .00015202  00000-0  37326-2 0  4586
2 33708 099.4563 206.8931 0107807 021.8474 130.9058 14.48962490323097
0 FENGYUN 1C DEB
1 33708U 99025DGV 13283.02724714  .00013382  00000-0  32877-2 0  4597
2 33708 099.4560 207.7229 0107717 019.7074 035.1634 14.48977329323202
0 FENGYUN 1C DEB
1 33708U 99025DGV 13286.29103863  .00010322  00000-0  25376-2 0  4615
2 33708 099.4564 211.3782 0107496 010.2433 140.3650 14.49044826323676
0 FENGYUN 1C DEB
1 33708U 99025DGV 13287.59732787  .00015296  00000-0  37491-2 0  4629
2 33708 099.4565 212.8407 0107405 006.5257 114.6291 14.49068584323862
0 FENGYUN 1C DEB
1 33708U 99025DGV 13289.03501454  .00016527  00000-0  40461-2 0  4635
2 33708 099.4575 214.4508 0107151 002.2407 054.7121 14.49115885324078
0 FENGYUN 1C DEB
1 33708U 99025DGV 13290.29588353  .00016326  00000-0  39953-2 0  4640
2 33708 099.4581 215.8631 0107042 358.6102 152.4170 14.49146990324257
0 FENGYUN 1C DEB
1 33708U 99025DGV 13292.63729404  .00014396  00000-0  35227-2 0  4650
2 33708 099.4579 218.4862 0106688 351.7687 127.6083 14.49209433324592
0 FENGYUN 1C DEB
1 33708U 99025DGV 13295.04144941  .00016001  00000-0  39094-2 0  4667
2 33708 099.4577 221.1799 0106385 344.7614 070.6562 14.49268261324948
